NORAD_CAT_ID,OBJECT_NAME,OBJECT_TYPE,EPOCH,MEAN_MOTION,ECCENTRICITY,INCLINATION,RA_OF_ASC_NODE,ARG_OF_PERICENTER,MEAN_ANOMALY,BSTAR,MEAN_MOTION_DOT,MEAN_MOTION_DDOT,TLE_LINE0,TLE_LINE1,TLE_LINE2,SEMIMAJOR_AXIS,PERIOD,APOGEE,PERIGEE,DECAYED
54808.0,STARLINK-5413,PAYLOAD,2023-05-14 19:50:13,15.08839463,0.0001327,53.217,317.5651,82.0646,278.0497,2.1416e-05,5.3e-07,0.0,0 STARLINK-5413,1 54808U 22175BC  23134.82653980  .00000053  00000-0  21416-4 0  9992,2 54808  53.2170 317.5651 0001327  82.0646 278.0497 15.08839463 22707,6917.882,95.438,540.665,538.829,0.0
54808.0,STARLINK-5413,PAYLOAD,2023-05-15 11:44:04,15.08822644,0.0001407,53.2167,314.5923,82.5859,277.5293,0.00019674,2.843e-05,0.0,0 STARLINK-5413,1 54808U 22175BC  23135.48894498  .00002843  00000-0  19674-3 0  9997,2 54808  53.2167 314.5923 0001407  82.5859 277.5293 15.08822644 22804,6917.933,95.439,540.772,538.825,0.0
54808.0,STARLINK-5413,PAYLOAD,2023-05-15 18:05:37,15.08835348,0.0001406,53.2163,313.4052,83.7365,276.3788,0.00010356,1.36e-05,0.0,0 STARLINK-5413,1 54808U 22175BC  23135.75390059  .00001360  00000-0  10356-3 0  9992,2 54808  53.2163 313.4052 0001406  83.7365 276.3788 15.08835348 22840,6917.895,95.438,540.732,538.787,0.0
54808.0,STARLINK-5413,PAYLOAD,2023-05-16 05:13:18,15.08841017,0.0001152,53.216,311.3221,87.3707,272.7417,-2.447e-06,-3.27e-06,0.0,0 STARLINK-5413,1 54808U 22175BC  23136.21757879 -.00000327  00000-0 -24470-5 0  9999,2 54808  53.2160 311.3221 0001152  87.3707 272.7417 15.08841017 25077,6917.877,95.437,540.539,538.945,0.0
54808.0,STARLINK-5413,PAYLOAD,2023-05-16 17:56:24,15.08824838,0.0001214,53.2162,308.9432,87.5742,272.5389,0.00013584,1.874e-05,0.0,0 STARLINK-5413,1 54808U 22175BC  23136.74750581  .00001874  00000-0  13584-3 0  9998,2 54808  53.2162 308.9432 0001214  87.5742 272.5389 15.08824838 22991,6917.927,95.439,540.632,538.952,0.0
54808.0,STARLINK-5413,PAYLOAD,2023-05-16 21:07:10,15.0884142,0.000121,53.2152,308.3477,92.0096,268.1035,-2.8518e-05,-7.42e-06,0.0,0 STARLINK-5413,1 54808U 22175BC  23136.87997958 -.00000742  00000-0 -28518-4 0  9992,2 54808  53.2152 308.3477 0001210  92.0096 268.1035 15.08841420 25170,6917.876,95.437,540.578,538.904,0.0
54808.0,STARLINK-5413,PAYLOAD,2023-05-17 11:25:39,15.08830754,0.0001311,53.2151,305.6708,79.5385,280.5755,-7.0852e-05,-1.415e-05,0.0,0 STARLINK-5413,1 54808U 22175BC  23137.47615068 -.00001415  00000-0 -70852-4 0  9994,2 54808  53.2151 305.6708 0001311  79.5385 280.5755 15.08830754 23105,6917.909,95.438,540.681,538.867,0.0
54808.0,STARLINK-5413,PAYLOAD,2023-05-17 17:47:20,15.08720345,0.0001562,53.2175,304.4833,72.9855,287.1309,-0.00099952,-0.00016108,0.0,0 STARLINK-5413,1 54808U 22175BC  23137.74120789 -.00016108  00000-0 -99952-3 0  9991,2 54808  53.2175 304.4833 0001562  72.9855 287.1309 15.08720345 23140,6918.246,95.445,541.192,539.031,0.0
54808.0,STARLINK-5413,PAYLOAD,2023-05-18 01:44:07,15.08841976,0.0001287,53.2187,302.9981,53.1487,306.9623,-6.1909e-05,-1.273e-05,0.0,0 STARLINK-5413,1 54808U 22175BC  23138.07230642 -.00001273  00000-0 -61909-4 0  9997,2 54808  53.2187 302.9981 0001287  53.1487 306.9623 15.08841976 23194,6917.874,95.437,540.63,538.849,0.0
54808.0,STARLINK-5413,PAYLOAD,2023-05-18 11:16:25,15.08837857,9.07e-05,53.2188,301.2135,60.6362,299.4721,8.9106e-05,1.131e-05,0.0,0 STARLINK-5413,1 54808U 22175BC  23138.46974278  .00001131  00000-0  89106-4 0  9990,2 54808  53.2188 301.2135 0000907  60.6362 299.4721 15.08837857 25416,6917.887,95.438,540.379,539.124,0.0
54808.0,STARLINK-5413,PAYLOAD,2023-05-18 17:37:57,15.08847308,0.0001217,53.2182,300.023,77.9869,282.1259,0.00010537,1.39e-05,0.0,0 STARLINK-5413,1 54808U 22175BC  23138.73469652  .00001390  00000-0  10537-3 0  9993,2 54808  53.2182 300.0230 0001217  77.9869 282.1259 15.08847308 23292,6917.858,95.437,540.565,538.881,0.0
54808.0,STARLINK-5413,PAYLOAD,2023-05-18 20:48:43,15.08848821,0.0001305,53.2169,299.4272,81.5875,278.5265,0.00010979,1.46e-05,0.0,0 STARLINK-5413,1 54808U 22175BC  23138.86717477  .00001460  00000-0  10979-3 0  9996,2 54808  53.2169 299.4272 0001305  81.5875 278.5265 15.08848821 25479,6917.853,95.437,540.621,538.816,0.0
54808.0,STARLINK-5413,PAYLOAD,2023-05-19 17:28:45,15.08834655,0.0001365,53.2166,295.5622,86.7563,273.3586,7.805e-05,9.54e-06,0.0,0 STARLINK-5413,1 54808U 22175BC  23139.72830699  .00000954  00000-0  78050-4 0  9996,2 54808  53.2166 295.5622 0001365  86.7563 273.3586 15.08834655 23443,6917.897,95.438,540.706,538.817,0.0
54808.0,STARLINK-5413,PAYLOAD,2023-05-20 03:01:05,15.08810544,0.0001326,53.217,293.7789,93.4209,266.6935,0.00033563,5.053e-05,0.0,0 STARLINK-5413,1 54808U 22175BC  23140.12575631  .00005053  00000-0  33563-3 0  9998,2 54808  53.2170 293.7789 0001326  93.4209 266.6935 15.08810544 23502,6917.97,95.439,540.753,538.918,0.0
54808.0,STARLINK-5413,PAYLOAD,2023-05-20 17:19:32,15.08851393,0.0001508,53.2176,291.1049,102.3214,257.7947,-4.5195e-06,-3.6e-06,0.0,0 STARLINK-5413,1 54808U 22175BC  23140.72189848 -.00000360  00000-0 -45195-5 0  9999,2 54808  53.2176 291.1049 0001508 102.3214 257.7947 15.08851393 23597,6917.846,95.437,540.754,538.667,0.0
54808.0,STARLINK-5413,PAYLOAD,2023-05-21 09:13:24,15.08825593,0.0001508,53.2158,288.1271,73.158,286.9578,-4.2474e-05,-9.64e-06,0.0,0 STARLINK-5413,1 54808U 22175BC  23141.38431528 -.00000964  00000-0 -42474-4 0  9993,2 54808  53.2158 288.1271 0001508  73.1580 286.9578 15.08825593 23699,6917.924,95.438,540.833,538.746,0.0
54808.0,STARLINK-5413,PAYLOAD,2023-05-21 17:10:20,15.08826287,0.0001158,53.217,286.6411,73.7316,286.3803,-9.0773e-05,-1.732e-05,0.0,0 STARLINK-5413,1 54808U 22175BC  23141.71551854 -.00001732  00000-0 -90773-4 0  9994,2 54808  53.2170 286.6411 0001158  73.7316 286.3803 15.08826287 25908,6917.922,95.438,540.588,538.986,0.0
54808.0,STARLINK-5413,PAYLOAD,2023-05-22 02:42:39,15.08833846,0.0001226,53.2175,284.8567,74.6989,285.4139,-8.3223e-06,-4.2e-06,0.0,0 STARLINK-5413,1 54808U 22175BC  23142.11295294 -.00000420  00000-0 -83223-5 0  9998,2 54808  53.2175 284.8567 0001226  74.6989 285.4139 15.08833846 23805,6917.899,95.438,540.612,538.916,0.0
54808.0,STARLINK-5413,PAYLOAD,2023-05-22 09:04:11,15.08841941,0.0001217,53.2178,283.667,78.7679,281.345,1.1731e-05,-1.01e-06,0.0,0 STARLINK-5413,1 54808U 22175BC  23142.37790762 -.00000101  00000-0  11731-4 0  9995,2 54808  53.2178 283.6670 0001217  78.7679 281.3450 15.08841941 23841,6917.874,95.437,540.581,538.898,0.0
54808.0,STARLINK-5413,PAYLOAD,2023-05-22 15:25:43,15.08853805,0.0001181,53.2171,282.4779,77.5002,282.6122,3.7957e-06,-2.27e-06,0.0,0 STARLINK-5413,1 54808U 22175BC  23142.64285999 -.00000227  00000-0  37957-5 0  9994,2 54808  53.2171 282.4779 0001181  77.5002 282.6122 15.08853805 23884,6917.838,95.437,540.52,538.886,0.0
54808.0,STARLINK-5413,PAYLOAD,2023-05-23 08:54:58,15.08827504,0.0001168,53.2161,279.2071,67.146,292.9656,0.0001231,1.671e-05,0.0,0 STARLINK-5413,1 54808U 22175BC  23143.37151091  .00001671  00000-0  12310-3 0  9997,2 54808  53.2161 279.2071 0001168  67.1460 292.9656 15.08827504 23995,6917.919,95.438,540.592,538.976,0.0
54808.0,STARLINK-5413,PAYLOAD,2023-05-23 15:16:31,15.08828685,0.0001472,53.217,278.0181,60.7397,299.3743,8.1974e-05,1.017e-05,0.0,0 STARLINK-5413,1 54808U 22175BC  23143.63647444  .00001017  00000-0  81974-4 0  9995,2 54808  53.2170 278.0181 0001472  60.7397 299.3743 15.08828685 26194,6917.915,95.438,540.798,538.762,0.0
54808.0,STARLINK-5413,PAYLOAD,2023-05-24 15:07:17,15.08846285,0.0001008,53.2166,273.5552,90.0812,270.0296,-4.1637e-05,-9.5e-06,0.0,0 STARLINK-5413,1 54808U 22175BC  23144.63006660 -.00000950  00000-0 -41637-4 0  9994,2 54808  53.2166 273.5552 0001008  90.0812 270.0296 15.08846285 24186,6917.861,95.437,540.423,539.029,0.0
54808.0,STARLINK-5413,PAYLOAD,2023-05-25 18:08:50,15.08837316,0.0001115,53.217,268.4979,99.7218,260.39,0.00011662,1.569e-05,0.0,0 STARLINK-5413,1 54808U 22175BC  23145.75614489  .00001569  00000-0  11662-3 0  9991,2 54808  53.2170 268.4979 0001115  99.7218 260.3900 15.08837316 24350,6917.889,95.438,540.525,538.982,0.0
54808.0,STARLINK-5413,PAYLOAD,2023-05-26 13:13:28,15.08836408,0.0001026,53.2171,264.9296,105.0786,255.032,5.1812e-07,-2.8e-06,0.0,0 STARLINK-5413,1 54808U 22175BC  23146.55102880 -.00000280  00000-0  51812-6 0  9991,2 54808  53.2171 264.9296 0001026 105.0786 255.0320 15.08836408 26637,6917.891,95.438,540.466,539.047,0.0
54808.0,STARLINK-5413,PAYLOAD,2023-05-26 14:48:51,15.08840685,0.0001127,53.2174,264.6314,102.4745,257.6373,3.3043e-06,-2.35e-06,0.0,0 STARLINK-5413,1 54808U 22175BC  23146.61726603 -.00000235  00000-0  33043-5 0  9998,2 54808  53.2174 264.6314 0001127 102.4745 257.6373 15.08840685 26645,6917.878,95.438,540.523,538.964,0.0
54808.0,STARLINK-5413,PAYLOAD,2023-05-27 00:21:10,15.08838868,0.0001105,53.2175,262.848,90.059,270.0529,-2.137e-05,-6.28e-06,0.0,0 STARLINK-5413,1 54808U 22175BC  23147.01470825 -.00000628  00000-0 -21370-4 0  9991,2 54808  53.2175 262.8480 0001105  90.0590 270.0529 15.08838868 24545,6917.884,95.438,540.513,538.984,0.0
54808.0,STARLINK-5413,PAYLOAD,2023-05-27 14:39:39,15.08842299,0.0001016,53.2159,260.1763,109.95,250.1602,-7.3881e-05,-1.463e-05,0.0,0 STARLINK-5413,1 54808U 22175BC  23147.61086947 -.00001463  00000-0 -73881-4 0  9997,2 54808  53.2159 260.1763 0001016 109.9500 250.1602 15.08842299 26797,6917.873,95.437,540.441,539.036,0.0
54808.0,STARLINK-5413,PAYLOAD,2023-05-28 00:11:57,15.08841987,0.0001043,53.2159,258.3921,115.8389,244.2711,-5.4808e-05,-1.16e-05,0.0,0 STARLINK-5413,1 54808U 22175BC  23148.00830835 -.00001160  00000-0 -54808-4 0  9996,2 54808  53.2159 258.3921 0001043 115.8389 244.2711 15.08841987 26858,6917.874,95.437,540.461,539.018,0.0
54808.0,STARLINK-5413,PAYLOAD,2023-05-28 08:08:53,15.0883559,0.0001026,53.2158,256.9052,104.0275,256.0831,-1.0278e-05,-4.51e-06,0.0,0 STARLINK-5413,1 54808U 22175BC  23148.33951270 -.00000451  00000-0 -10278-4 0  9994,2 54808  53.2158 256.9052 0001026 104.0275 256.0831 15.08835590 24744,6917.894,95.438,540.469,539.049,0.0
